GLOBALSTAR M001         
1 25162U 98008A   24203.56920307 -.00000055  00000+0  31650-3 0  9992
2 25162  52.0004 215.4995 0001720 270.9381 238.3925 12.38188912202867
GLOBALSTAR M004         
1 25163U 98008B   24204.48890352 -.00000064  00000+0  22307-3 0  9990
2 25163  52.0021 339.9620 0002220 274.9409 163.5657 12.63365617220111
GLOBALSTAR M002         
1 25164U 98008C   24203.87615575 -.00000111  00000+0 -67039-3 0  9990
2 25164  52.0043 348.4007 0000666 238.6003 121.4752 11.61502334145682
GLOBALSTAR M003         
1 25165U 98008D   24204.49697372  .00000025  00000+0  12165-2 0  9996
2 25165  51.9922   1.6264 0007679 355.0840  44.9020 12.12020411193334
GLOBALSTAR M014         
1 25306U 98023A   24204.17931826 -.00000074  00000+0  72044-4 0  9999
2 25306  51.9837 277.8053 0001263 126.8776 255.8691 11.65469240152688
GLOBALSTAR M006         
1 25307U 98023B   24203.85811332 -.00000051  00000+0  50329-3 0  9999
2 25307  51.9966 318.7442 0003699 219.5559 287.8457 11.58163419178665
GLOBALSTAR M015         
1 25308U 98023C   24204.55223212 -.00000145  00000+0 -16222-2 0  9990
2 25308  51.9838  40.3751 0012112 207.3248 186.5485 11.48849309156564
GLOBALSTAR M008         
1 25309U 98023D   24203.82796588 -.00000106  00000+0 -75141-4 0  9995
2 25309  51.9977  75.8327 0002045 185.2193 256.4917 12.36045498196991
